[{"OBJECT_NAME":"STARLINK-4206","OBJECT_ID":"2022-062T","EPOCH":"2026-03-09T07:34:50.709216","MEAN_MOTION":15.08840143,"ECCENTRICITY":0.00015659,"INCLINATION":53.2187,"RA_OF_ASC_NODE":35.7988,"ARG_OF_PERICENTER":97.451,"MEAN_ANOMALY":262.666,"EPHEMERIS_TYPE":0,"CLASSIFICATION_TYPE":"U","NORAD_CAT_ID":52847,"ELEMENT_SET_NO":999,"REV_AT_EPOCH":20573,"BSTAR":-1.0231464e-5,"MEAN_MOTION_DOT":-4.51e-6,"MEAN_MOTION_DDOT":0},{"OBJECT_NAME":"PSLV DEB","OBJECT_ID":"2001-049PF","EPOCH":"2026-02-25T09:35:51.227808","MEAN_MOTION":15.03011877,"ECCENTRICITY":0.00263657,"INCLINATION":98.0083,"RA_OF_ASC_NODE":118.9106,"ARG_OF_PERICENTER":265.6966,"MEAN_ANOMALY":94.1245,"EPHEMERIS_TYPE":0,"CLASSIFICATION_TYPE":"U","NORAD_CAT_ID":28853,"ELEMENT_SET_NO":999,"REV_AT_EPOCH":68879,"BSTAR":0.00037786861,"MEAN_MOTION_DOT":5.057e-5,"MEAN_MOTION_DDOT":0}]
